SL-16 R/B               
1 24298U 96051B   25300.17086776 -.00000107  00000+0 -31426-4 0  9997
2 24298  70.7579  97.8497 0016991 321.4025  38.5879 14.12392484502790
ORBVIEW 2 (SEASTAR)     
1 24883U 97037A   25300.14182642  .00000536  00000+0  20316-3 0  9997
2 24883  98.8437  96.0517 0003225  93.6408 266.5146 14.35363821489317
SL-16 R/B               
1 25400U 98043G   25300.27899838  .00000151  00000+0  82190-4 0  9999
2 25400  98.8040 247.8563 0010654  45.7415 314.4637 14.26007899419973
SL-16 R/B               
1 25407U 98045B   25300.14618487  .00000166  00000+0  10798-3 0  9993
2 25407  71.0085 102.4082 0009252 237.9196 122.1029 14.16162060408199
ISS (ZARYA)             
1 25544U 98067A   25300.16780669  .00014439  00000+0  26496-3 0  9993
2 25544  51.6344  13.0478 0004675 344.0892  15.9949 15.49510292535637
CZ-4B R/B               
1 25732U 99025C   25300.03751957  .00000115  00000+0  76211-4 0  9998
2 25732  98.6839 342.3449 0037273  11.0045  11.1686 14.18226521369223
OKEAN-O                 
1 25860U 99039A   25300.14281669  .00001050  00000+0  14561-3 0  9993
2 25860  97.9668 356.2337 0001840  79.8423 280.2996 14.80044155414639
SL-16 R/B               
1 25861U 99039B   25300.11544100  .00000875  00000+0  11841-3 0  9995
2 25861  98.0193 354.2483 0014225 335.7812  24.2730 14.81486800417084
DELTA 2 R/B             
1 25876U 99041E   25299.90315850  .00001005  00000+0  20049-3 0  9992
2 25876  51.7630 115.3761 0504513 313.7189  42.2982 14.11243645344139
HELIOS 1B               
1 25977U 99064A   25300.24285435  .00002791  00000+0  31811-3 0  9996
2 25977  98.1756 193.5379 0002324 105.9937 254.1534 14.86997304665428
TERRA                   
1 25994U 99068A   25300.29903047  .00000743  00000+0  16109-3 0  9998
2 25994  97.9816 353.6702 0001210 216.5798 215.7366 14.60871838375606
SL-16 R/B               
1 26070U 00006B   25300.26832855  .00000209  00000+0  13063-3 0  9996
2 26070  71.0044  18.3695 0015759  17.2010 342.9644 14.15794601329670
