CCSDS_OMM_VERS = 2.0
CREATION_DATE  = 
ORIGINATOR     = 

OBJECT_NAME    = SL-16 R/B
OBJECT_ID      = 1996-051B
CENTER_NAME    = EARTH
REF_FRAME      = TEME
TIME_SYSTEM    = UTC
MEAN_ELEMENT_THEORY = SGP/SGP4

EPOCH          = 2025-10-27T04:06:02.974464
MEAN_MOTION    = 14.12392484
ECCENTRICITY   = .00169912
INCLINATION    = 70.7579
RA_OF_ASC_NODE = 97.8497
ARG_OF_PERICENTER = 321.4025
MEAN_ANOMALY   = 38.5879

EPHEMERIS_TYPE = 0
CLASSIFICATION_TYPE = U
NORAD_CAT_ID   = 24298
ELEMENT_SET_NO = 999
REV_AT_EPOCH   = 50279
BSTAR          = -.31426377E-4
MEAN_MOTION_DOT = -.107E-5
MEAN_MOTION_DDOT = 0

CCSDS_OMM_VERS = 2.0
CREATION_DATE  = 
ORIGINATOR     = 

OBJECT_NAME    = ORBVIEW 2 (SEASTAR)
OBJECT_ID      = 1997-037A
CENTER_NAME    = EARTH
REF_FRAME      = TEME
TIME_SYSTEM    = UTC
MEAN_ELEMENT_THEORY = SGP/SGP4

EPOCH          = 2025-10-27T03:24:13.802688
MEAN_MOTION    = 14.35363821
ECCENTRICITY   = .0003225
INCLINATION    = 98.8437
RA_OF_ASC_NODE = 96.0517
ARG_OF_PERICENTER = 93.6408
MEAN_ANOMALY   = 266.5146

EPHEMERIS_TYPE = 0
CLASSIFICATION_TYPE = U
NORAD_CAT_ID   = 24883
ELEMENT_SET_NO = 999
REV_AT_EPOCH   = 48931
BSTAR          = .20316478E-3
MEAN_MOTION_DOT = .536E-5
MEAN_MOTION_DDOT = 0

CCSDS_OMM_VERS = 2.0
CREATION_DATE  = 
ORIGINATOR     = 

OBJECT_NAME    = SL-16 R/B
OBJECT_ID      = 1998-043G
CENTER_NAME    = EARTH
REF_FRAME      = TEME
TIME_SYSTEM    = UTC
MEAN_ELEMENT_THEORY = SGP/SGP4

EPOCH          = 2025-10-27T06:41:45.460032
MEAN_MOTION    = 14.26007899
ECCENTRICITY   = .00106543
INCLINATION    = 98.8040
RA_OF_ASC_NODE = 247.8563
ARG_OF_PERICENTER = 45.7415
MEAN_ANOMALY   = 314.4637

EPHEMERIS_TYPE = 0
CLASSIFICATION_TYPE = U
NORAD_CAT_ID   = 25400
ELEMENT_SET_NO = 999
REV_AT_EPOCH   = 41997
BSTAR          = .82190256E-4
MEAN_MOTION_DOT = .151E-5
MEAN_MOTION_DDOT = 0

CCSDS_OMM_VERS = 2.0
CREATION_DATE  = 
ORIGINATOR     = 

OBJECT_NAME    = SL-16 R/B
OBJECT_ID      = 1998-045B
CENTER_NAME    = EARTH
REF_FRAME      = TEME
TIME_SYSTEM    = UTC
MEAN_ELEMENT_THEORY = SGP/SGP4

EPOCH          = 2025-10-27T03:30:30.372768
MEAN_MOTION    = 14.16162060
ECCENTRICITY   = .00092524
INCLINATION    = 71.0085
RA_OF_ASC_NODE = 102.4082
ARG_OF_PERICENTER = 237.9196
MEAN_ANOMALY   = 122.1029

EPHEMERIS_TYPE = 0
CLASSIFICATION_TYPE = U
NORAD_CAT_ID   = 25407
ELEMENT_SET_NO = 999
REV_AT_EPOCH   = 40819
BSTAR          = .10798279E-3
MEAN_MOTION_DOT = .166E-5
MEAN_MOTION_DDOT = 0

CCSDS_OMM_VERS = 2.0
CREATION_DATE  = 
ORIGINATOR     = 

OBJECT_NAME    = ISS (ZARYA)
OBJECT_ID      = 1998-067A
CENTER_NAME    = EARTH
REF_FRAME      = TEME
TIME_SYSTEM    = UTC
MEAN_ELEMENT_THEORY = SGP/SGP4

EPOCH          = 2025-10-27T04:01:38.498016
MEAN_MOTION    = 15.49510292
ECCENTRICITY   = .00046759
INCLINATION    = 51.6344
RA_OF_ASC_NODE = 13.0478
ARG_OF_PERICENTER = 344.0892
MEAN_ANOMALY   = 15.9949

EPHEMERIS_TYPE = 0
CLASSIFICATION_TYPE = U
NORAD_CAT_ID   = 25544
ELEMENT_SET_NO = 999
REV_AT_EPOCH   = 53563
BSTAR          = .26496221E-3
MEAN_MOTION_DOT = .14439E-3
MEAN_MOTION_DDOT = 0

CCSDS_OMM_VERS = 2.0
CREATION_DATE  = 
ORIGINATOR     = 

OBJECT_NAME    = CZ-4B R/B
OBJECT_ID      = 1999-025C
CENTER_NAME    = EARTH
REF_FRAME      = TEME
TIME_SYSTEM    = UTC
MEAN_ELEMENT_THEORY = SGP/SGP4

EPOCH          = 2025-10-27T00:54:01.690848
MEAN_MOTION    = 14.18226521
ECCENTRICITY   = .00372739
INCLINATION    = 98.6839
RA_OF_ASC_NODE = 342.3449
ARG_OF_PERICENTER = 11.0045
MEAN_ANOMALY   = 11.1686

EPHEMERIS_TYPE = 0
CLASSIFICATION_TYPE = U
NORAD_CAT_ID   = 25732
ELEMENT_SET_NO = 999
REV_AT_EPOCH   = 36922
BSTAR          = .76210883E-4
MEAN_MOTION_DOT = .115E-5
MEAN_MOTION_DDOT = 0

CCSDS_OMM_VERS = 2.0
CREATION_DATE  = 
ORIGINATOR     = 

OBJECT_NAME    = OKEAN-O
OBJECT_ID      = 1999-039A
CENTER_NAME    = EARTH
REF_FRAME      = TEME
TIME_SYSTEM    = UTC
MEAN_ELEMENT_THEORY = SGP/SGP4

EPOCH          = 2025-10-27T03:25:39.362016
MEAN_MOTION    = 14.80044155
ECCENTRICITY   = .00018406
INCLINATION    = 97.9668
RA_OF_ASC_NODE = 356.2337
ARG_OF_PERICENTER = 79.8423
MEAN_ANOMALY   = 280.2996

EPHEMERIS_TYPE = 0
CLASSIFICATION_TYPE = U
NORAD_CAT_ID   = 25860
ELEMENT_SET_NO = 999
REV_AT_EPOCH   = 41463
BSTAR          = .14561266E-3
MEAN_MOTION_DOT = .105E-4
MEAN_MOTION_DDOT = 0

CCSDS_OMM_VERS = 2.0
CREATION_DATE  = 
ORIGINATOR     = 

OBJECT_NAME    = SL-16 R/B
OBJECT_ID      = 1999-039B
CENTER_NAME    = EARTH
REF_FRAME      = TEME
TIME_SYSTEM    = UTC
MEAN_ELEMENT_THEORY = SGP/SGP4

EPOCH          = 2025-10-27T02:46:14.102400
MEAN_MOTION    = 14.81486800
ECCENTRICITY   = .00142253
INCLINATION    = 98.0193
RA_OF_ASC_NODE = 354.2483
ARG_OF_PERICENTER = 335.7812
MEAN_ANOMALY   = 24.2730

EPHEMERIS_TYPE = 0
CLASSIFICATION_TYPE = U
NORAD_CAT_ID   = 25861
ELEMENT_SET_NO = 999
REV_AT_EPOCH   = 41708
BSTAR          = .11840855E-3
MEAN_MOTION_DOT = .875E-5
MEAN_MOTION_DDOT = 0

CCSDS_OMM_VERS = 2.0
CREATION_DATE  = 
ORIGINATOR     = 

OBJECT_NAME    = DELTA 2 R/B
OBJECT_ID      = 1999-041E
CENTER_NAME    = EARTH
REF_FRAME      = TEME
TIME_SYSTEM    = UTC
MEAN_ELEMENT_THEORY = SGP/SGP4

EPOCH          = 2025-10-26T21:40:32.894400
MEAN_MOTION    = 14.11243645
ECCENTRICITY   = .0504513
INCLINATION    = 51.7630
RA_OF_ASC_NODE = 115.3761
ARG_OF_PERICENTER = 313.7189
MEAN_ANOMALY   = 42.2982

EPHEMERIS_TYPE = 0
CLASSIFICATION_TYPE = U
NORAD_CAT_ID   = 25876
ELEMENT_SET_NO = 999
REV_AT_EPOCH   = 34413
BSTAR          = .20049E-3
MEAN_MOTION_DOT = .1005E-4
MEAN_MOTION_DDOT = 0

CCSDS_OMM_VERS = 2.0
CREATION_DATE  = 
ORIGINATOR     = 

OBJECT_NAME    = HELIOS 1B
OBJECT_ID      = 1999-064A
CENTER_NAME    = EARTH
REF_FRAME      = TEME
TIME_SYSTEM    = UTC
MEAN_ELEMENT_THEORY = SGP/SGP4

EPOCH          = 2025-10-27T05:49:42.615840
MEAN_MOTION    = 14.86997304
ECCENTRICITY   = .00023249
INCLINATION    = 98.1756
RA_OF_ASC_NODE = 193.5379
ARG_OF_PERICENTER = 105.9937
MEAN_ANOMALY   = 254.1534

EPHEMERIS_TYPE = 0
CLASSIFICATION_TYPE = U
NORAD_CAT_ID   = 25977
ELEMENT_SET_NO = 999
REV_AT_EPOCH   = 66542
BSTAR          = .31811375E-3
MEAN_MOTION_DOT = .2791E-4
MEAN_MOTION_DDOT = 0

CCSDS_OMM_VERS = 2.0
CREATION_DATE  = 
ORIGINATOR     = 

OBJECT_NAME    = TERRA
OBJECT_ID      = 1999-068A
CENTER_NAME    = EARTH
REF_FRAME      = TEME
TIME_SYSTEM    = UTC
MEAN_ELEMENT_THEORY = SGP/SGP4

EPOCH          = 2025-10-27T07:10:36.232608
MEAN_MOTION    = 14.60871838
ECCENTRICITY   = .00012107
INCLINATION    = 97.9816
RA_OF_ASC_NODE = 353.6702
ARG_OF_PERICENTER = 216.5798
MEAN_ANOMALY   = 215.7366

EPHEMERIS_TYPE = 0
CLASSIFICATION_TYPE = U
NORAD_CAT_ID   = 25994
ELEMENT_SET_NO = 999
REV_AT_EPOCH   = 37560
BSTAR          = .16109461E-3
MEAN_MOTION_DOT = .743E-5
MEAN_MOTION_DDOT = 0

CCSDS_OMM_VERS = 2.0
CREATION_DATE  = 
ORIGINATOR     = 

OBJECT_NAME    = SL-16 R/B
OBJECT_ID      = 2000-006B
CENTER_NAME    = EARTH
REF_FRAME      = TEME
TIME_SYSTEM    = UTC
MEAN_ELEMENT_THEORY = SGP/SGP4

EPOCH          = 2025-10-27T06:26:23.586720
MEAN_MOTION    = 14.15794601
ECCENTRICITY   = .00157597
INCLINATION    = 71.0044
RA_OF_ASC_NODE = 18.3695
ARG_OF_PERICENTER = 17.2010
MEAN_ANOMALY   = 342.9644

EPHEMERIS_TYPE = 0
CLASSIFICATION_TYPE = U
NORAD_CAT_ID   = 26070
ELEMENT_SET_NO = 999
REV_AT_EPOCH   = 32967
BSTAR          = .1306304E-3
MEAN_MOTION_DOT = .209E-5
MEAN_MOTION_DDOT = 0

